{
  "type": "FeatureCollection",
  "features": [
    {
      "type": "Feature",
      "properties": {
        "norad_id": 44231,
        "name": "BEIDOU-2 G8 (C01)",
        "group": "gnss",
        "lat": -1.6096097368758049,
        "lon": -3.2730053522806117,
        "alt_km": 35754.87643164788,
        "timestamp": "2025-12-08T08:59:01.009113+00:00",
        "meta_object_name": "BEIDOU-2 G8 (C01)",
        "meta_object_id": "2019-027A",
        "meta_epoch": "2025-12-07T22:52:56.534304",
        "meta_mean_motion": 1.00269075,
        "meta_eccentricity": 0.00085913,
        "meta_inclination": 1.6496,
        "meta_ra_of_asc_node": 74.7187,
        "meta_arg_of_pericenter": 255.3493,
        "meta_mean_anomaly": 234.6834,
        "meta_ephemeris_type": 0,
        "meta_classification_type": "U",
        "meta_norad_cat_id": 44231,
        "meta_element_set_no": 999,
        "meta_rev_at_epoch": 2416,
        "meta_bstar": 0,
        "meta_mean_motion_dot": -2.45e-06,
        "meta_mean_motion_ddot": 0,
        "tle_line1": "1 44231U 19027A   25341.95343211 -.00000245  00000+0  00000+0 0  9996",
        "tle_line2": "2 44231   1.6496  74.7187 0008591 255.3493 234.6834  1.00269075 24163"
      },
      "geometry": {
        "type": "Point",
        "coordinates": [
          -3.2730053522806117,
          -1.6096097368758049
        ]
      }
    },
    {
      "type": "Feature",
      "properties": {
        "norad_id": 44299,
        "name": "COSMOS 2534 (758)",
        "group": "gnss",
        "lat": -64.11524278189601,
        "lon": 117.30766467332226,
        "alt_km": 19113.975496694235,
        "timestamp": "2025-12-08T08:59:01.009127+00:00",
        "meta_object_name": "COSMOS 2534 (758)",
        "meta_object_id": "2019-030A",
        "meta_epoch": "2025-12-07T18:53:39.162912",
        "meta_mean_motion": 2.1310206,
        "meta_eccentricity": 0.00089584,
        "meta_inclination": 64.3654,
        "meta_ra_of_asc_node": 199.0599,
        "meta_arg_of_pericenter": 283.6827,
        "meta_mean_anomaly": 259.6101,
        "meta_ephemeris_type": 0,
        "meta_classification_type": "U",
        "meta_norad_cat_id": 44299,
        "meta_element_set_no": 999,
        "meta_rev_at_epoch": 5084,
        "meta_bstar": 0,
        "meta_mean_motion_dot": 5.4e-07,
        "meta_mean_motion_ddot": 0,
        "tle_line1": "1 44299U 19030A   25341.78725883  .00000054  00000+0  00000+0 0  9991",
        "tle_line2": "2 44299  64.3654 199.0599 0008958 283.6827 259.6101  2.13102060 50842"
      },
      "geometry": {
        "type": "Point",
        "coordinates": [
          117.30766467332226,
          -64.11524278189601
        ]
      }
    },
    {
      "type": "Feature",
      "properties": {
        "norad_id": 44337,
        "name": "BEIDOU-3 IGSO-2 (C39)",
        "group": "gnss",
        "lat": 7.414581756871955,
        "lon": -24.66710423250926,
        "alt_km": 35650.8330100481,
        "timestamp": "2025-12-08T08:59:01.009141+00:00",
        "meta_object_name": "BEIDOU-3 IGSO-2 (C39)",
        "meta_object_id": "2019-035A",
        "meta_epoch": "2025-12-07T16:50:33.150912",
        "meta_mean_motion": 1.002726,
        "meta_eccentricity": 0.00374891,
        "meta_inclination": 55.2245,
        "meta_ra_of_asc_node": 160.5453,
        "meta_arg_of_pericenter": 202.4176,
        "meta_mean_anomaly": 85.9349,
        "meta_ephemeris_type": 0,
        "meta_classification_type": "U",
        "meta_norad_cat_id": 44337,
        "meta_element_set_no": 999,
        "meta_rev_at_epoch": 2374,
        "meta_bstar": 0,
        "meta_mean_motion_dot": -7.8e-07,
        "meta_mean_motion_ddot": 0,
        "tle_line1": "1 44337U 19035A   25341.70177258 -.00000078  00000+0  00000+0 0  9995",
        "tle_line2": "2 44337  55.2245 160.5453 0037489 202.4176  85.9349  1.00272600 23745"
      },
      "geometry": {
        "type": "Point",
        "coordinates": [
          -24.66710423250926,
          7.414581756871955
        ]
      }
    },
    {
      "type": "Feature",
      "properties": {
        "norad_id": 44506,
        "name": "GPS BIII-2  (PRN 18)",
        "group": "gnss",
        "lat": 40.81276489475978,
        "lon": 122.63772998721583,
        "alt_km": 20126.04458132412,
        "timestamp": "2025-12-08T08:59:01.009153+00:00",
        "meta_object_name": "GPS BIII-2  (PRN 18)",
        "meta_object_id": "2019-056A",
        "meta_epoch": "2025-12-07T10:30:03.799008",
        "meta_mean_motion": 2.00565766,
        "meta_eccentricity": 0.00577762,
        "meta_inclination": 55.723,
        "meta_ra_of_asc_node": 338.7627,
        "meta_arg_of_pericenter": 198.4737,
        "meta_mean_anomaly": 333.4267,
        "meta_ephemeris_type": 0,
        "meta_classification_type": "U",
        "meta_norad_cat_id": 44506,
        "meta_element_set_no": 999,
        "meta_rev_at_epoch": 4622,
        "meta_bstar": 0,
        "meta_mean_motion_dot": -8.3e-07,
        "meta_mean_motion_ddot": 0,
        "tle_line1": "1 44506U 19056A   25341.43754397 -.00000083  00000+0  00000+0 0  9997",
        "tle_line2": "2 44506  55.7230 338.7627 0057776 198.4737 333.4267  2.00565766 46229"
      },
      "geometry": {
        "type": "Point",
        "coordinates": [
          122.63772998721583,
          40.81276489475978
        ]
      }
    },
    {
      "type": "Feature",
      "properties": {
        "norad_id": 44542,
        "name": "BEIDOU-3 M24 (C46)",
        "group": "gnss",
        "lat": -10.622417509046562,
        "lon": 16.8947688856487,
        "alt_km": 21556.07975603472,
        "timestamp": "2025-12-08T08:59:01.009165+00:00",
        "meta_object_name": "BEIDOU-3 M24 (C46)",
        "meta_object_id": "2019-061A",
        "meta_epoch": "2025-12-04T20:45:16.055424",
        "meta_mean_motion": 1.86229249,
        "meta_eccentricity": 0.00095755,
        "meta_inclination": 54.4001,
        "meta_ra_of_asc_node": 189.282,
        "meta_arg_of_pericenter": 24.0464,
        "meta_mean_anomaly": 336.0883,
        "meta_ephemeris_type": 0,
        "meta_classification_type": "U",
        "meta_norad_cat_id": 44542,
        "meta_element_set_no": 999,
        "meta_rev_at_epoch": 4217,
        "meta_bstar": 0,
        "meta_mean_motion_dot": 9.8e-07,
        "meta_mean_motion_ddot": 0,
        "tle_line1": "1 44542U 19061A   25338.86476916  .00000098  00000+0  00000+0 0  9999",
        "tle_line2": "2 44542  54.4001 189.2820 0009575  24.0464 336.0883  1.86229249 42179"
      },
      "geometry": {
        "type": "Point",
        "coordinates": [
          16.8947688856487,
          -10.622417509046562
        ]
      }
    },
    {
      "type": "Feature",
      "properties": {
        "norad_id": 44543,
        "name": "BEIDOU-3 M23 (C45)",
        "group": "gnss",
        "lat": 51.409475495633615,
        "lon": -54.75890260894072,
        "alt_km": 21520.168434845113,
        "timestamp": "2025-12-08T08:59:01.009177+00:00",
        "meta_object_name": "BEIDOU-3 M23 (C45)",
        "meta_object_id": "2019-061B",
        "meta_epoch": "2025-12-04T17:20:06.370944",
        "meta_mean_motion": 1.86227466,
        "meta_eccentricity": 0.0006129,
        "meta_inclination": 54.3989,
        "meta_ra_of_asc_node": 189.2553,
        "meta_arg_of_pericenter": 23.0087,
        "meta_mean_anomaly": 154.4182,
        "meta_ephemeris_type": 0,
        "meta_classification_type": "U",
        "meta_norad_cat_id": 44543,
        "meta_element_set_no": 999,
        "meta_rev_at_epoch": 4217,
        "meta_bstar": 0,
        "meta_mean_motion_dot": 1e-06,
        "meta_mean_motion_ddot": 0,
        "tle_line1": "1 44543U 19061B   25338.72229596  .00000100  00000+0  00000+0 0  9999",
        "tle_line2": "2 44543  54.3989 189.2553 0006129  23.0087 154.4182  1.86227466 42172"
      },
      "geometry": {
        "type": "Point",
        "coordinates": [
          -54.75890260894072,
          51.409475495633615
        ]
      }
    },
    {
      "type": "Feature",
      "properties": {
        "norad_id": 44624,
        "name": "EUTELSAT 5 WEST B (EGNOS/PRN 121)",
        "group": "gnss",
        "lat": -0.06531685064097546,
        "lon": -152.90065380946683,
        "alt_km": 35776.80697793745,
        "timestamp": "2025-12-08T08:59:01.009189+00:00",
        "meta_object_name": "EUTELSAT 5 WEST B (EGNOS/PRN 121)",
        "meta_object_id": "2019-067A",
        "meta_epoch": "2025-12-07T22:10:15.621024",
        "meta_mean_motion": 1.00270758,
        "meta_eccentricity": 0.00035675,
        "meta_inclination": 0.0653,
        "meta_ra_of_asc_node": 338.5812,
        "meta_arg_of_pericenter": 279.2547,
        "meta_mean_anomaly": 146.6691,
        "meta_ephemeris_type": 0,
        "meta_classification_type": "U",
        "meta_norad_cat_id": 44624,
        "meta_element_set_no": 999,
        "meta_rev_at_epoch": 2251,
        "meta_bstar": 0,
        "meta_mean_motion_dot": -3.9e-07,
        "meta_mean_motion_ddot": 0,
        "tle_line1": "1 44624U 19067A   25341.92379191 -.00000039  00000+0  00000+0 0  9990",
        "tle_line2": "2 44624   0.0653 338.5812 0003567 279.2547 146.6691  1.00270758 22516"
      },
      "geometry": {
        "type": "Point",
        "coordinates": [
          -152.90065380946683,
          -0.06531685064097546
        ]
      }
    }
  ]
}